CUPID                   
1 49264U 21088E   26068.66993977  .00009454  00000+0  38662-3 0  9991
2 49264  97.3985 131.0756 0013746  59.9938 300.2662 15.24473777245013
STARLINK-34054          
1 64141U 25111U   26068.42419102  .00020027  00000+0  73505-3 0  9994
2 64141  43.0041  79.2911 0001442 268.6319  91.4367 15.27592397 45420
